COSMOS 2433 (720)       
1 32275U 07052A   22163.91691049 -.00000037  00000+0  00000+0 0  9995
2 32275  66.0831   4.8200 0000375 200.4826 180.0139  2.13104250113876
COSMOS 2432 (719)       
1 32276U 07052B   22164.52460760 -.00000040  00000+0  00000+0 0  9992
2 32276  66.0943   4.9019 0009587 342.1023  92.9413  2.13103475113882
COSMOS 2434 (721)       
1 32393U 07065A   22164.45928612  .00000052  00000+0  00000+0 0  9995
2 32393  64.3850 241.5632 0001947 103.3595 222.7799  2.13103253112583
COSMOS 2436 (723)       
1 32395U 07065C   22164.51497190  .00000052  00000+0  00000+0 0  9996
2 32395  64.3920 241.6184 0014774 358.2280 146.5200  2.13103080112522
COSMOS 2456 (730)       
1 36111U 09070A   22164.27006718  .00000028  00000+0  00000+0 0  9992
2 36111  64.3521 121.2002 0005837 306.5492  40.0538  2.13099323 97249
COSMOS 2457 (733)       
1 36112U 09070B   22164.35813557  .00000027  00000+0  00000+0 0  9998
2 36112  64.3364 121.0713 0003959 195.0921 346.3291  2.13101497 97258
COSMOS 2461 (735)       
1 36401U 10007B   22164.59715419 -.00000040  00000+0  00000+0 0  9991
2 36401  65.9686   3.6359 0021344  12.5377  27.2519  2.13103808 95614
COSMOS 2460 (732)       
1 36402U 10007C   22164.38591249 -.00000039  00000+0  00000+0 0  9990
2 36402  65.9554   3.5940 0002712  70.0575 116.0526  2.13106447 95607
COSMOS 2464 (736)       
1 37139U 10041C   22164.68955707  .00000054  00000+0  00000+0 0  9998
2 37139  63.9830 240.6321 0028243   9.1741 351.8751  2.13100864 91671
COSMOS 2476 (744)       
1 37867U 11064A   22164.52133583  .00000029  00000+0  00000+0 0  9997
2 37867  64.6417 122.5444 0022893 241.4243 203.4207  2.13101879 82603
COSMOS 2477 (745)       
1 37868U 11064B   22165.26854625  .00000025  00000+0  00000+0 0  9993
2 37868  64.6497 122.5832 0020188 242.8139 233.3827  2.13101875 82579
COSMOS 2475 (743)       
1 37869U 11064C   22165.14106834  .00000026  00000+0  00000+0 0  9994
2 37869  64.6576 122.5958 0024851 258.6500  77.7510  2.13102064 82575
COSMOS 2485 (747)       
1 39155U 13019A   22164.60417487  .00000029  00000+0  00000+0 0  9998
2 39155  64.8067 122.9709 0023087 237.3841 315.4018  2.13102008 71078
COSMOS 2492 (754)       
1 39620U 14012A   22164.99784961 -.00000043  00000+0  00000+0 0  9992
2 39620  65.8416   3.2549 0012447 334.2622 195.0299  2.13103293 64037
COSMOS 2500 (755)       
1 40001U 14032A   22164.60831294 -.00000041  00000+0  00000+0 0  9997
2 40001  65.7801   3.1296 0004945 179.9369 269.1931  2.13102482 62249
COSMOS 2501 (702K)      
1 40315U 14075A   22164.79782436  .00000052  00000+0  00000+0 0  9996
2 40315  63.6909 241.2980 0018598 209.2276 193.2571  2.13101620 58651
COSMOS 2514 (751)       
1 41330U 16008A   22163.78328278 -.00000038  00000+0  00000+0 0  9995
2 41330  65.5815   2.8500 0008490 199.4453 160.5709  2.13102691 49392
COSMOS 2516 (753)       
1 41554U 16032A   22165.40379525  .00000052  00000+0  00000+0 0  9997
2 41554  63.9168 241.5525 0014564 215.4491 210.4274  2.13106500 47036
COSMOS 2522 (752)       
1 42939U 17055A   22165.43338056  .00000051  00000+0  00000+0 0  9997
2 42939  64.1514 241.9458 0008312 240.8910  64.5336  2.13101999 36787
COSMOS 2527 (756)       
1 43508U 18053A   22164.79976492  .00000028  00000+0  00000+0 0  9993
2 43508  64.9694 122.9614 0009401 243.1307 328.3161  2.13102573 31067
COSMOS 2529 (757)       
1 43687U 18086A   22165.18651979  .00000051  00000+0  00000+0 0  9997
2 43687  64.3661 242.2690 0009989 263.8327 167.7362  2.13102212 28092
COSMOS 2534 (758)       
1 44299U 19030A   22164.61826110  .00000051  00000+0  00000+0 0  9995
2 44299  64.4382 242.1725 0012461 284.6506 205.5489  2.13102127 23721
COSMOS 2544 (759)       
1 44850U 19088A   22164.66453130  .00000029  00000+0  16595+1 0  9996
2 44850  64.9538 122.8190 0014222 264.1674 247.0070  2.13102422 19492
COSMOS 2545 (760)       
1 45358U 20018A   22164.60932534 -.00000043  00000+0  00000+0 0  9999
2 45358  64.9186   3.4341 0006430 247.4881  70.8111  2.13102752 17440
COSMOS 2547 (705K)      
1 46805U 20075A   22164.38489247  .00000052  00000+0  00000+0 0  9992
2 46805  64.6598 241.6037 0007352 243.1663 115.6843  2.13103316 12683
